CIC_OEM_VERS = 2.0
CREATION_DATE = 2025-03-17T14:46:42.971172
ORIGINATOR = ISAE-SUPAERO


META_START
OBJECT_NAME = RED2
OBJECT_ID = RED2
CENTER_NAME = Earth
REF_FRAME = EME2000
TIME_SYSTEM = UTC
START_TIME = 2025-03-17T14:43:35.000
USEABLE_START_TIME = 2025-03-17T14:43:35.000
USEABLE_STOP_TIME = 2025-03-17T23:56:35.000
STOP_TIME = 2025-03-17T23:56:35.000
INTERPOLATION = lagrange
INTERPOLATION_DEGREE = 5
META_STOP



60751 53015.0 -14095.385 -3627.6696 -3627.6696 1.7630918999999998 -3.4252646 -3.4252646
60751 53435.0 -13210.165 -5023.317900000001 -5023.2924 2.4416691 -3.2104867 -3.210359
60751 53855.0 -12050.861 -6314.817400000001 -6314.704900000001 3.0694207000000002 -2.9287123000000004 -2.9284203000000004
60751 54275.0 -10640.841 -7474.9318 -7474.6568 3.6332822 -2.5860546 -2.5855686
60751 54695.0 -9009.496000000001 -8479.571 -8479.0473 4.121529000000001 -2.1896376 -2.1889363
60751 55115.0 -7190.7704 -9307.8515 -9306.9858 4.5240243 -1.7477095999999999 -1.7467812
60751 55535.0 -5222.499400000001 -9942.558500000001 -9941.2546 4.8324155 -1.2694590000000001 -1.2683015
60751 55955.0 -3145.6215 -10370.501 -10368.664 5.0403042 -0.7648228699999999 -0.7634453099999999
60751 56375.0 -1003.3284 -10582.782000000001 -10580.323 5.1433761 -0.24428263000000003 -0.24270457
60751 56795.0 1159.8297 -10574.984 -10571.826000000001 5.1394879 0.28135228 0.28310063
60751 57215.0 3298.8668 -10347.261 -10343.34 5.028711400000001 0.80116597 0.80304444
60751 57635.0 5369.2927 -9904.3331 -9899.6041 4.8133322 1.3043602 1.3063196000000001
60751 58055.0 7328.0358 -9255.3924 -9249.8333 4.4978051 1.7804764 1.7824596
60751 58475.0 9134.3345 -8413.913 -8407.527 4.088666 2.2196116000000004 2.2215553
60751 58895.0 10750.589 -7397.38 -7390.197700000001 3.5943983 2.612623 2.6144594000000003
60751 59315.0 12143.14 -6226.9196 -6219.000900000001 3.025263 2.951321 2.9529796000000004
60751 59735.0 13282.978000000001 -4926.8696 -4918.304099999999 2.3930883 3.2286397000000004 3.2300497
60751 60155.0 14146.345000000001 -3524.2727999999997 -3515.1793 1.7110253 3.4387874000000003 3.4398798000000004
60751 60575.0 14715.239 -2048.3143 -2038.8402 0.99327527 3.5773704 3.5780803000000003
60751 60995.0 14977.792 -529.71416 -520.03257 0.25479283 3.6414876 3.6417564000000002
60751 61415.0 14928.517 999.91422 1009.6071999999999 -0.48902828 3.6297933 3.6295709
60751 61835.0 14568.433 2508.7247 2518.2138999999997 -1.2226796 3.5425268 3.5417734999999997
60751 62255.0 13905.034 3965.3041000000003 3974.3604 -1.9308653 3.3815073000000004 3.3801957000000002
60751 62675.0 12952.142 5339.329 5347.7145 -2.5988244 3.1500954 3.1482115
60751 63095.0 11729.607 6602.1991 6609.6731 -3.2126409 2.8531208 2.8506655999999997
60751 63515.0 10262.899 7727.6333 7733.9588 -3.7595354000000003 2.4967792 2.4937692
60751 63935.0 8582.567000000001 8692.2173 8697.1676 -4.228130500000001 2.0885005999999997 2.0849684
60751 64355.0 6723.6035 9475.8895 9479.2546 -4.6086863000000005 1.6367926 1.6327865
60751 64775.0 4724.7119 10062.356 10063.95 -4.8933002 1.1510613 1.1466449
60751 65195.0 2627.4999 10439.431 10439.097 -5.076068 0.6414149200000001 0.6366665100000001
60751 65615.0 475.61345 10599.28 10596.898000000001 -5.1532035 0.11845386000000001 0.11346467
60751 66035.0 -1686.1694 10538.59 10534.08 -5.1231144 -0.40694833 -0.41207572
60751 66455.0 -3812.8695000000002 10258.631 10251.958 -4.9864337999999995 -0.92386974 -0.92902346
60751 66875.0 -5860.2391 9765.232800000002 9756.4101 -4.7460067 -1.4215650000000002 -1.4266264000000002
60751 67295.0 -7785.6808 9068.6599 9057.7523 -4.4068318 -1.8896868 -1.894533
60751 67715.0 -9549.131300000001 8183.402900000001 8170.5267 -3.9759595 -2.3185000000000002 -2.323007
60751 68135.0 -11113.895 7127.876700000001 7113.2002999999995 -3.462348 -2.6990834 -2.7031291
60751 68555.0 -12447.409 5924.0393 5907.7813 -2.8766792999999997 -3.0235160000000003 -3.0269830000000004
60751 68975.0 -13521.918 4596.9362 4579.3628 -2.2311389 -3.2850428000000003 -3.2878220000000002
60751 69395.0 -14315.06 3174.1794 3155.6006 -1.5391637 -3.4782170000000003 -3.4802104
60751 69815.0 -14810.328 1685.3736000000001 1666.1375 -0.81516147 -3.5990156000000004 -3.6001392
60751 70235.0 -14997.421 161.49828 141.985 -0.074209942 -3.6449242 -3.6451108
60751 70655.0 -14872.452000000001 -1365.7374 -1385.1235 0.66825954 -3.6149908 -3.614192
60751 71075.0 -14438.036 -2864.5569 -2883.3954 1.396786 -3.5098453 -3.5080337
60751 71495.0 -13703.231 -4303.7785 -4321.6421 2.0962032 -3.3316858000000003 -3.3288563
60751 71915.0 -12683.369 -5653.4526 -5669.9169 2.7519676 -3.0842235000000002 -3.0803943
60751 72335.0 -11399.624 -6885.5288 -6900.1818 3.3504264 -2.7726369 -2.76785
60751 72755.0 -9878.7711 -7974.3875 -7986.840099999999 3.8791462 -2.4034036999999997 -2.3977249
60751 73175.0 -8152.4501 -8897.3888 -8907.284099999999 4.3271481000000005 -1.9842117000000001 -1.9777297
60751 73595.0 -6256.5781 -9635.347800000001 -9642.3709 4.6851321 -1.5237794 -1.5166048
60751 74015.0 -4230.5911 -10172.927 -10176.814 4.9456699 -1.0316766 -1.0239399
60751 74435.0 -2116.6248 -10498.951000000001 -10499.496000000001 5.1033549 -0.51812636 -0.5099756400000001
60751 74855.0 41.358923000000004 -10606.642 -10603.705 5.154912500000001 0.0062061128 0.014607691
60751 75275.0 2198.4827 -10493.753 -10487.265 5.0992656 0.53043236 0.53891003
60751 75695.0 4309.8832 -10162.619 -10152.587 4.9375577 1.0436642 1.0520351000000001
60751 76115.0 6331.6405 -9620.1096 -9606.6164 4.673130100000001 1.5352374 1.5433146
60751 76535.0 8221.689400000001 -8877.4859 -8860.694800000001 4.3114559 1.9949314 2.0025278
60751 76955.0 9940.689699999999 -7950.1732 -7930.3247 3.8600315999999997 2.4131798 2.4201127000000002
60751 77375.0 11452.853000000001 -6857.441900000001 -6834.8516 3.3282222000000004 2.7812712000000004 2.7873664
60751 77795.0 12726.682 -5622.0079000000005 -5597.062 2.7270749999999997 3.0915308 3.0966272
60751 78215.0 13735.634 -4269.5654 -4242.714400000001 2.0690897 3.3374827000000002 3.3414358
60751 78635.0 14458.673 -2828.2518999999998 -2800.0027000000005 1.3679609000000001 3.5139874 3.5166738
60751 79055.0 14880.722 -1328.0627 -1298.969 0.63829243 3.6173528999999998 3.6186733
60751 79475.0 14992.971 199.77446 229.12272000000002 -0.10470853 3.6454134 3.6452959000000003
60751 79895.0 14793.069 1723.4516 1752.4406000000001 -0.84555167 3.5975773 3.5959796
60751 80315.0 14285.174 3211.2459 3239.2505 -1.5687901 3.4748398000000003 3.4717510000000003
60751 80735.0 13479.864 4632.1822999999995 4658.5797999999995 -2.2593465000000004 3.2797618 3.2752040000000004
60751 81155.0 12393.918 5956.6816 5980.8653 -2.9028302 3.0164154 3.0104434
60751 81575.0 11049.960000000001 7157.177000000001 7178.5703 -3.4858393000000003 2.6902964000000003 2.6829978999999997
60751 81995.0 9475.9852 8208.6892 8226.759 -3.9962407 2.3082071 2.2997016
60751 82415.0 7704.776400000001 9089.3455 9103.615 -4.4234211 1.8781122000000001 1.8685489
60751 82835.0 5773.213900000001 9780.8331 9790.894400000001 -4.7585061 1.408971 1.3985263
60751 83255.0 3721.5081 10268.779 10274.303 -4.9945413 0.9105493400000001 0.89942391
60751 83675.0 1592.3614 10543.045 10543.792 -5.1266335 0.3932164 0.38163104
60751 84095.0 -569.9191999999999 10597.939 10593.764000000001 -5.1520497999999995 -0.13227008 -0.14407864
60751 84515.0 -2720.3428 10432.327 10423.189 -5.070271300000001 -0.65498595 -0.6667699500000001
60751 84935.0 -4814.1683 10049.661 10035.623 -4.8830033 -1.1640659 -1.1755718
60751 85355.0 -6807.8324 9457.9041 9439.1372 -4.594140400000001 -1.6489274 -1.659901
60751 85775.0 -8659.8542 8669.367 8646.1466 -4.2096866 -2.0994886000000004 -2.1096814
60751 86195.0 -10331.697 7700.452 7673.156400000001 -3.7376336 -2.506378 -2.5155518000000003
